{"type": "Feature", "geometry": {"type": "MultiPolygon", "coordinates": [[[[-118.731274, 34.818611], [-118.856274, 34.837361], [-118.921809, 34.897672], [-121.875661, 39.189676], [-121.87809, 39.204569], [-121.948903, 40.005859], [-121.943772, 40.016528], [-121.935769, 40.021622], [-121.44199, 40.270662], [-120.767609, 40.445991], [-120.755231, 40.446988], [-120.742125, 40.44687], [-120.574128, 40.35002], [-120.163138, 40.089925], [-120.019737, 39.942647], [-120.018773, 39.941528], [-118.265608, 37.121777], [-118.093131, 36.681905], [-118.069836, 36.61571], [-118.040669, 36.518033], [-117.903129, 35.99884], [-117.89895, 35.982149], [-117.882393, 35.863838], [-117.862654, 35.688293], [-117.862943, 35.652547], [-118.009456, 35.29176], [-118.012788, 35.285978], [-118.058447, 35.217248], [-118.079964, 35.190893], [-118.351208, 34.960042], [-118.366019, 34.94803], [-118.380086, 34.938207], [-118.409968, 34.927587], [-118.728092, 34.819596], [-118.731274, 34.818611]]]]}, "properties": {}}