{"type": "Feature", "geometry": {"type": "MultiPolygon", "coordinates": [[[[-119.268903, 37.739453], [-119.272653, 37.739651], [-119.287806, 37.745305], [-119.692081, 37.900034], [-119.781793, 37.93606], [-119.782846, 37.936846], [-119.784964, 37.938688], [-119.797162, 37.954347], [-119.798288, 37.957023], [-119.798339, 37.958373], [-119.796731, 37.978955], [-119.626386, 38.162374], [-119.626053, 38.162652], [-119.625721, 38.16293], [-119.625389, 38.163207], [-119.616071, 38.170714], [-119.597343, 38.183294], [-119.593294, 38.185005], [-119.592619, 38.185291], [-119.58991, 38.186161], [-119.588883, 38.186184], [-119.587153, 38.185682], [-119.501662, 38.159422], [-119.496466, 38.157641], [-119.34831, 38.085547], [-119.346199, 38.083697], [-119.328543, 38.066207], [-119.322862, 38.059561], [-119.310777, 38.044931], [-119.198683, 37.885689], [-119.198659, 37.884879], [-119.200964, 37.80184], [-119.201256, 37.800212], [-119.203139, 37.79477], [-119.204112, 37.79313], [-119.255466, 37.745388], [-119.25613, 37.744835], [-119.260786, 37.741231], [-119.261799, 37.740941], [-119.268562, 37.739459], [-119.268903, 37.739453]]], [[[-119.268903, 37.739453], [-119.272653, 37.739651], [-119.287806, 37.745305], [-119.692081, 37.900034], [-119.781793, 37.93606], [-119.782846, 37.936846], [-119.784964, 37.938688], [-119.797162, 37.954347], [-119.798288, 37.957023], [-119.798339, 37.958373], [-119.796731, 37.978955], [-119.626386, 38.162374], [-119.626053, 38.162652], [-119.625721, 38.16293], [-119.625389, 38.163207], [-119.616071, 38.170714], [-119.597343, 38.183294], [-119.593294, 38.185005], [-119.592619, 38.185291], [-119.58991, 38.186161], [-119.588883, 38.186184], [-119.587153, 38.185682], [-119.501662, 38.159422], [-119.496466, 38.157641], [-119.34831, 38.085547], [-119.346199, 38.083697], [-119.328543, 38.066207], [-119.322862, 38.059561], [-119.310777, 38.044931], [-119.198683, 37.885689], [-119.198659, 37.884879], [-119.200964, 37.80184], [-119.201256, 37.800212], [-119.203139, 37.79477], [-119.204112, 37.79313], [-119.255466, 37.745388], [-119.25613, 37.744835], [-119.260786, 37.741231], [-119.261799, 37.740941], [-119.268562, 37.739459], [-119.268903, 37.739453]]]]}, "properties": {}}